{
  "type": "FeatureCollection",
  "features": [
    {
      "type": "Feature",
      "properties": {
        "norad_id": 2807,
        "name": "OPS 7218 (TRANSIT 16)",
        "group": "nnss",
        "lat": -26.125454317400422,
        "lon": -6.632842270044753,
        "alt_km": 1078.3228728442782,
        "timestamp": "2025-12-27T11:23:20.165963+00:00",
        "meta_object_name": "OPS 7218 (TRANSIT 16)",
        "meta_object_id": "1967-048A",
        "meta_epoch": "2025-12-27T01:10:54.482016",
        "meta_mean_motion": 13.50725218,
        "meta_eccentricity": 0.0022125,
        "meta_inclination": 89.6735,
        "meta_ra_of_asc_node": 353.5414,
        "meta_arg_of_pericenter": 76.0171,
        "meta_mean_anomaly": 351.3895,
        "meta_ephemeris_type": 0,
        "meta_classification_type": "U",
        "meta_norad_cat_id": 2807,
        "meta_element_set_no": 999,
        "meta_rev_at_epoch": 88469,
        "meta_bstar": 0.00016376,
        "meta_mean_motion_dot": 1.16e-06,
        "meta_mean_motion_ddot": 0,
        "tle_line1": "1 02807U 67048A   25361.04924169  .00000116  00000+0  16376-3 0  9997",
        "tle_line2": "2 02807  89.6735 353.5414 0022125  76.0171 351.3895 13.50725218884699"
      },
      "geometry": {
        "type": "Point",
        "coordinates": [
          -6.632842270044753,
          -26.125454317400422
        ]
      }
    },
    {
      "type": "Feature",
      "properties": {
        "norad_id": 2965,
        "name": "OPS 4947 (TRANSIT 17)",
        "group": "nnss",
        "lat": -3.493965252552226,
        "lon": -156.6430186816469,
        "alt_km": 1028.096149927339,
        "timestamp": "2025-12-27T11:23:20.165985+00:00",
        "meta_object_name": "OPS 4947 (TRANSIT 17)",
        "meta_object_id": "1967-092A",
        "meta_epoch": "2025-12-27T01:44:28.419360",
        "meta_mean_motion": 13.53457396,
        "meta_eccentricity": 0.0047282,
        "meta_inclination": 89.2485,
        "meta_ra_of_asc_node": 23.3417,
        "meta_arg_of_pericenter": 192.1031,
        "meta_mean_anomaly": 193.8499,
        "meta_ephemeris_type": 0,
        "meta_classification_type": "U",
        "meta_norad_cat_id": 2965,
        "meta_element_set_no": 999,
        "meta_rev_at_epoch": 87291,
        "meta_bstar": 0.00019936,
        "meta_mean_motion_dot": 1.46e-06,
        "meta_mean_motion_ddot": 0,
        "tle_line1": "1 02965U 67092A   25361.07255115  .00000146  00000+0  19936-3 0  9990",
        "tle_line2": "2 02965  89.2485  23.3417 0047282 192.1031 193.8499 13.53457396872916"
      },
      "geometry": {
        "type": "Point",
        "coordinates": [
          -156.6430186816469,
          -3.493965252552226
        ]
      }
    },
    {
      "type": "Feature",
      "properties": {
        "norad_id": 3133,
        "name": "OPS 7034 (TRANSIT 18)",
        "group": "nnss",
        "lat": -53.48390076856675,
        "lon": 93.64261228473747,
        "alt_km": 1089.1083449158696,
        "timestamp": "2025-12-27T11:23:20.165998+00:00",
        "meta_object_name": "OPS 7034 (TRANSIT 18)",
        "meta_object_id": "1968-012A",
        "meta_epoch": "2025-12-27T01:24:54.088704",
        "meta_mean_motion": 13.51569169,
        "meta_eccentricity": 0.007512,
        "meta_inclination": 90.0284,
        "meta_ra_of_asc_node": 273.6798,
        "meta_arg_of_pericenter": 128.0553,
        "meta_mean_anomaly": 243.6683,
        "meta_ephemeris_type": 0,
        "meta_classification_type": "U",
        "meta_norad_cat_id": 3133,
        "meta_element_set_no": 999,
        "meta_rev_at_epoch": 57112,
        "meta_bstar": 0.00021224,
        "meta_mean_motion_dot": 1.51e-06,
        "meta_mean_motion_ddot": 0,
        "tle_line1": "1 03133U 68012A   25361.05895936  .00000151  00000+0  21224-3 0  9999",
        "tle_line2": "2 03133  90.0284 273.6798 0075120 128.0553 243.6683 13.51569169571120"
      },
      "geometry": {
        "type": "Point",
        "coordinates": [
          93.64261228473747,
          -53.48390076856675
        ]
      }
    },
    {
      "type": "Feature",
      "properties": {
        "norad_id": 4507,
        "name": "NNSS 19 (TRANSIT 19)",
        "group": "nnss",
        "lat": -9.16070701619859,
        "lon": 54.54292663181426,
        "alt_km": 1008.7804793302721,
        "timestamp": "2025-12-27T11:23:20.166010+00:00",
        "meta_object_name": "NNSS 19 (TRANSIT 19)",
        "meta_object_id": "1970-067A",
        "meta_epoch": "2025-12-27T03:19:49.282176",
        "meta_mean_motion": 13.51318074,
        "meta_eccentricity": 0.0170239,
        "meta_inclination": 90.0045,
        "meta_ra_of_asc_node": 234.5435,
        "meta_arg_of_pericenter": 251.2246,
        "meta_mean_anomaly": 107.037,
        "meta_ephemeris_type": 0,
        "meta_classification_type": "U",
        "meta_norad_cat_id": 4507,
        "meta_element_set_no": 999,
        "meta_rev_at_epoch": 72416,
        "meta_bstar": 0.00013052,
        "meta_mean_motion_dot": 1.01e-06,
        "meta_mean_motion_ddot": 0,
        "tle_line1": "1 04507U 70067A   25361.13876484  .00000101  00000+0  13052-3 0  9999",
        "tle_line2": "2 04507  90.0045 234.5435 0170239 251.2246 107.0370 13.51318074724167"
      },
      "geometry": {
        "type": "Point",
        "coordinates": [
          54.54292663181426,
          -9.16070701619859
        ]
      }
    },
    {
      "type": "Feature",
      "properties": {
        "norad_id": 6909,
        "name": "NNSS 20 (TRANSIT 20)",
        "group": "nnss",
        "lat": -68.30532525459573,
        "lon": 75.19611900100196,
        "alt_km": 1096.9689121560132,
        "timestamp": "2025-12-27T11:23:20.166021+00:00",
        "meta_object_name": "NNSS 20 (TRANSIT 20)",
        "meta_object_id": "1973-081A",
        "meta_epoch": "2025-12-27T03:10:40.516032",
        "meta_mean_motion": 13.71442057,
        "meta_eccentricity": 0.0155993,
        "meta_inclination": 89.8558,
        "meta_ra_of_asc_node": 254.8386,
        "meta_arg_of_pericenter": 35.6424,
        "meta_mean_anomaly": 325.5035,
        "meta_ephemeris_type": 0,
        "meta_classification_type": "U",
        "meta_norad_cat_id": 6909,
        "meta_element_set_no": 999,
        "meta_rev_at_epoch": 80558,
        "meta_bstar": 0.00029265,
        "meta_mean_motion_dot": 2.98e-06,
        "meta_mean_motion_ddot": 0,
        "tle_line1": "1 06909U 73081A   25361.13241338  .00000298  00000+0  29265-3 0  9990",
        "tle_line2": "2 06909  89.8558 254.8386 0155993  35.6424 325.5035 13.71442057805584"
      },
      "geometry": {
        "type": "Point",
        "coordinates": [
          75.19611900100196,
          -68.30532525459573
        ]
      }
    },
    {
      "type": "Feature",
      "properties": {
        "norad_id": 10457,
        "name": "TRANSAT",
        "group": "nnss",
        "lat": 69.78123391241355,
        "lon": 79.03314750798121,
        "alt_km": 1065.3073029955804,
        "timestamp": "2025-12-27T11:23:20.166031+00:00",
        "meta_object_name": "TRANSAT",
        "meta_object_id": "1977-106A",
        "meta_epoch": "2025-12-27T04:12:20.050848",
        "meta_mean_motion": 13.48945884,
        "meta_eccentricity": 0.0026675,
        "meta_inclination": 89.6473,
        "meta_ra_of_asc_node": 78.0855,
        "meta_arg_of_pericenter": 148.7401,
        "meta_mean_anomaly": 268.7468,
        "meta_ephemeris_type": 0,
        "meta_classification_type": "U",
        "meta_norad_cat_id": 10457,
        "meta_element_set_no": 999,
        "meta_rev_at_epoch": 36938,
        "meta_bstar": 0.00012462,
        "meta_mean_motion_dot": 8.9e-07,
        "meta_mean_motion_ddot": 0,
        "tle_line1": "1 10457U 77106A   25361.17523207  .00000089  00000+0  12462-3 0  9996",
        "tle_line2": "2 10457  89.6473  78.0855 0026675 148.7401 268.7468 13.48945884369384"
      },
      "geometry": {
        "type": "Point",
        "coordinates": [
          79.03314750798121,
          69.78123391241355
        ]
      }
    },
    {
      "type": "Feature",
      "properties": {
        "norad_id": 12458,
        "name": "NOVA 1",
        "group": "nnss",
        "lat": 51.962543297422854,
        "lon": 91.36551275846162,
        "alt_km": 1156.0477351867148,
        "timestamp": "2025-12-27T11:23:20.166042+00:00",
        "meta_object_name": "NOVA 1",
        "meta_object_id": "1981-044A",
        "meta_epoch": "2025-12-27T04:11:06.067392",
        "meta_mean_motion": 13.23280146,
        "meta_eccentricity": 0.0015653,
        "meta_inclination": 89.8524,
        "meta_ra_of_asc_node": 91.181,
        "meta_arg_of_pericenter": 68.4809,
        "meta_mean_anomaly": 354.5029,
        "meta_ephemeris_type": 0,
        "meta_classification_type": "U",
        "meta_norad_cat_id": 12458,
        "meta_element_set_no": 999,
        "meta_rev_at_epoch": 15377,
        "meta_bstar": 0.00011717,
        "meta_mean_motion_dot": 5.9e-07,
        "meta_mean_motion_ddot": 0,
        "tle_line1": "1 12458U 81044A   25361.17437578  .00000059  00000+0  11717-3 0  9999",
        "tle_line2": "2 12458  89.8524  91.1810 0015653  68.4809 354.5029 13.23280146153774"
      },
      "geometry": {
        "type": "Point",
        "coordinates": [
          91.36551275846162,
          51.962543297422854
        ]
      }
    }
  ]
}